OSCAR 7 (AO-7)          
1 07530U 74089B   26160.31226999 -.00000035  00000+0  69227-4 0  9997
2 07530 101.9901 173.4766 0012488 144.7701 229.1729 12.53697932359533
PHASE 3B (AO-10)        
1 14129U 83058B   26158.17238870 -.00000194  00000+0  00000+0 0  9992
2 14129  25.9048 221.2242 6014266 112.9115 319.2048  2.05872980295281
UOSAT 2 (UO-11)         
1 14781U 84021B   26160.43538020  .00001122  00000+0  11981-3 0  9994
2 14781  97.8054 126.0969 0006913 198.6022 161.4944 14.90763984255974
LUSAT (LO-19)           
1 20442U 90005G   26160.22832358  .00000103  00000+0  53684-4 0  9997
2 20442  98.8852 181.8144 0010713 225.8181 134.2123 14.34120727901254
EYESAT A (AO-27)        
1 22825U 93061C   26160.44809160  .00000080  00000+0  47247-4 0  9990
2 22825  98.6881 227.8641 0009417 119.8200 240.3919 14.30940206705899
ITAMSAT (IO-26)         
1 22826U 93061D   26160.42981207  .00000081  00000+0  47221-4 0  9995
2 22826  98.6830 227.7625 0010032 105.1057 255.1236 14.31366838706204
RADIO ROSTO (RS15)      
1 23439U 94085A   26160.48871985 -.00000037  00000+0  14709-3 0  9996
2 23439  64.8186 315.6669 0155713   5.3005 354.9524 11.27583629295032
JAS-2 (FO-29)           
1 24278U 96046B   26160.47401426 -.00000004  00000+0  28819-4 0  9997
2 24278  98.5247  10.4028 0350783 116.3945 247.3646 13.53273763472128
TECHSAT 1B (GO-32)      
1 25397U 98043D   26160.47814272  .00000062  00000+0  47013-4 0  9996
2 25397  99.0065 153.0425 0000613 183.0488 177.0687 14.24426925450238
ISS (ZARYA)             
1 25544U 98067A   26160.51346514  .00007341  00000+0  13794-3 0  9995
2 25544  51.6332 338.0748 0006877 150.8507 209.2867 15.49683556570568
PCSAT (NO-44)           
1 26931U 01043C   26160.54616118  .00000088  00000+0  63924-4 0  9999
2 26931  67.0511 264.0346 0006107 264.2446  95.7959 14.31953409289350
SAUDISAT 1C (SO-50)     
1 27607U 02058C   26160.33310559  .00000929  00000+0  12688-3 0  9998
2 27607  64.5504 153.2855 0075434 263.9300  95.3207 14.83029515263299
CUTE-1 (CO-55)          
1 27844U 03031E   26160.23963294  .00000266  00000+0  13415-3 0  9995
2 27844  98.6735 168.8984 0009004 201.6668 158.4131 14.24330800190548
CUBESAT XI-IV (CO-57)   
1 27848U 03031J   26160.01325554  .00000222  00000+0  11652-3 0  9999
2 27848  98.6766 168.3941 0008561 222.5153 137.5363 14.23616414190218
MOZHAETS 4 (RS22)       
1 27939U 03042A   26160.54450546  .00000494  00000+0  84420-4 0  9995
2 27939  98.3474 344.6876 0010159 297.0248 155.9562 14.73452877214427
CUBESAT XI-V            
1 28895U 05043F   26160.38487946  .00001300  00000+0  21228-3 0  9999
2 28895  98.2976 315.8433 0013165 226.6554 133.3557 14.72610449100600
CUTE-1.7+APD II (CO-65) 
1 32785U 08021C   26160.49259447  .00005238  00000+0  33171-3 0  9990
2 32785  97.8272 141.7515 0010344  61.4937 298.7331 15.09379566984036
SEEDS II (CO-66)        
1 32791U 08021J   26160.23552937  .00016060  00000+0  51422-3 0  9993
2 32791  97.7519 157.7552 0002294  29.0945 331.0423 15.32477826986071
YUBILEINY (RS30)        
1 32953U 08025A   26160.45304782  .00000045  00000+0  25256-3 0  9996
2 32953  82.5050   0.2522 0019191 331.2977  28.7045 12.43179072818737
KKS-1 (KISEKI)          
1 33499U 09002H   26160.49794213  .00001297  00000+0  16601-3 0  9998
2 33499  98.1192  82.8184 0006991 324.8419  35.2332 14.83104394935054
SWISSCUBE               
1 35932U 09051B   26160.23220341  .00000884  00000+0  18430-3 0  9997
2 35932  98.4042  67.9819 0005536 231.7827 128.2876 14.62466323887992
BEESAT-1                
1 35933U 09051C   26160.51132019  .00000778  00000+0  16607-3 0  9999
2 35933  98.3972  67.9173 0003918 247.5852 112.4933 14.61708260888068
ITUPSAT1                
1 35935U 09051E   26160.49549253  .00000698  00000+0  15408-3 0  9999
2 35935  98.4055  67.1012 0006086 262.7226  97.3282 14.60429234887618
XIWANG-1 (HOPE-1)       
1 36122U 09072B   26160.49197213 -.00000359  00000+0 -82351-3 0  9993
2 36122 100.4023 114.4470 0006808 251.1258 108.9117 13.16437659791990
O/OREOS (USA 219)       
1 37224U 10062C   26160.22668022  .00002113  00000+0  20525-3 0  9993
2 37224  71.9704  98.3700 0012386  80.4823 279.7746 14.93710062115451
JUGNU                   
1 37839U 11058B   26160.26883713  .00000405  00000+0  72297-4 0  9997
2 37839  19.9621 356.5333 0018550 349.0526 166.6651 14.13774628757908
SRMSAT                  
1 37841U 11058D   26160.53493751  .00000362  00000+0  52397-4 0  9990
2 37841  19.9710 105.7844 0011936 119.8301  40.8059 14.11573956756730
STRAND-1                
1 39090U 13009E   26160.46722360  .00000269  00000+0  10495-3 0  9997
2 39090  98.3920 340.8917 0007447 251.7124 108.3252 14.37158714695956
ZACUBE-1 (TSHEPISOSAT)  
1 39417U 13066B   26160.47518227  .00003043  00000+0  23849-3 0  9999
2 39417  97.8090 122.7702 0040069 274.7996  84.8653 15.01140367679579
GOMX-1                  
1 39430U 13066Q   26160.49132678  .00001791  00000+0  27315-3 0  9998
2 39430  97.6494   1.4397 0130156 101.9869 259.5961 14.69431192668786
